HORIZONS-2              
1 32388C 07063B   22304.00000000 -.00000165  00000-0  00000-0 0  3044
2 32388   0.0000 274.3954 0002459 330.2790  80.8382  1.00270016    11
HORIZONS-2              
1 32388C 07063B   22307.00000000 -.00000204  00000-0  00000-0 0  3074
2 32388   0.0000 197.5207 0002733  46.0254  84.9028  1.00272259    13
HORIZONS-2          [PM]
1 32388C 07063B   22310.35945602 -.00000163  00000-0  00000-0 0  3100
2 32388   0.0183 277.8671 0003120 340.7193 202.5797  1.00272985    16
GALAXY 18 (G-18)        
1 32951C 08024A   22304.00000000  .00000059  00000-0  00000-0 0  3049
2 32951   0.0315  75.7838 0002839 130.2124  70.3181  1.00272652    10
GALAXY 18 (G-18)        
1 32951C 08024A   22307.00000000  .00000115  00000-0  00000-0 0  3078
2 32951   0.0288 269.5704 0002916 298.0387  71.6562  1.00268129    15
GALAXY 18 (G-18)    [PM]
1 32951C 08024A   22307.45069444  .00000115  00000-0  00000-0 0  3074
2 32951   0.0281 269.7956 0003068 302.3496 229.8093  1.00270692    12
INTELSAT 25 (IS-25)     
1 33153C 08034A   22304.00000000 -.00000134  00000-0  00000-0 0  3040
2 33153   0.0053 267.9438 0002869 292.0779 167.7844  1.00272216    14
INTELSAT 25 (IS-25)     
1 33153C 08034A   22307.00000000 -.00000132  00000-0  00000-0 0  3074
2 33153   0.0128 265.0344 0003081 303.3263 162.4084  1.00271721    11
INTELSAT 25 (IS-25) [PM]
1 33153C 08034A   22311.76459491 -.00000134  00000-0  00000-0 0  3111
2 33153   0.0468 150.0990 0003172 350.2440 150.3740  1.00272531    12
GALAXY 19 (G-19)        
1 33376C 08045A   22304.00000000 -.00000049  00000-0  00000-0 0  3044
2 33376   0.0124 267.0468 0002432 301.4949  93.7620  1.00270877    15
GALAXY 19 (G-19)    [PM]
1 33376C 08045A   22305.16738426 -.00000049  00000-0  00000-0 0  3053
2 33376   0.0106 260.4209 0002569 310.5357 152.7536  1.00272131    17
GALAXY 19 (G-19)        
1 33376C 08045A   22307.00000000 -.00000050  00000-0  00000-0 0  3072
2 33376   0.0078 254.6734 0002685 321.7334  88.8497  1.00271198    18
INTELSAT 14 (IS-14)     
1 36097C 09064A   22304.00000000 -.00000181  00000-0  00000-0 0  3046
2 36097   0.0016 268.9632 0002304 307.4751 137.8854  1.00270520    10
INTELSAT 14 (IS-14)     
1 36097C 09064A   22307.00000000 -.00000187  00000-0  00000-0 0  3078
2 36097   0.0000 229.0500 0002566 350.2798 137.9346  1.00272366    19
INTELSAT 14 (IS-14) [PM]
1 36097C 09064A   22311.76241898 -.00000183  00000-0  00000-0 0  3119
2 36097   0.0205 283.3102 0002831 314.3449  38.7801  1.00270295    19
INTELSAT 15 (IS-15)     
1 36106C 09067A   22304.00000000 -.00000178  00000-0  00000-0 0  3046
2 36106   0.0011 344.9460 0002153 220.9121 278.6122  1.00270297    15
INTELSAT 15 (IS-15)     
1 36106C 09067A   22307.00000000 -.00000096  00000-0  00000-0 0  3071
2 36106   0.0199 295.7595 0002355 276.8164 274.8396  1.00271403    16
INTELSAT 15 (IS-15) [PM]
1 36106C 09067A   22313.50454861 -.00000092  00000-0  00000-0 0  3134
2 36106   0.0173 343.5419 0002508 248.2682  83.6476  1.00272475    18
INTELSAT 16 (IS-16)     
1 36397C 10006A   22304.00000000 -.00000236  00000-0  00000-0 0  3048
2 36397   0.0114 130.4716 0001867  71.7981 120.8523  1.00270429    10
INTELSAT 16 (IS-16)     
1 36397C 10006A   22307.00000000 -.00000155  00000-0  00000-0 0  3074
2 36397   0.0191 287.8979 0002165 277.5803 120.5805  1.00272079    17
INTELSAT 16 (IS-16) [PM]
1 36397C 10006A   22313.00158565 -.00000155  00000-0  00000-0 0  3138
2 36397   0.0131 327.5531 0002248 259.7747 105.2205  1.00272449    13
INTELSAT 17 (IS-17)     
1 37238C 10065B   22304.00000000  .00000088  00000-0  00000-0 0  3042
2 37238   0.0216 239.7932 0002330 330.2034 255.3050  1.00272678    16
INTELSAT 17 (IS-17)     
1 37238C 10065B   22307.00000000  .00000088  00000-0  00000-0 0  3078
2 37238   0.0188 228.7678 0002583 344.7128 254.7867  1.00269974    17
INTELSAT 17 (IS-17) [PM]
1 37238C 10065B   22310.95457176  .00000088  00000-0  00000-0 0  3100
2 37238   0.0204 248.3139 0002913 342.8416 224.6435  1.00274641    16
INTELSAT NEW DAWN       
1 37392C 11016A   22304.00000000  .00000247  00000-0  00000-0 0  3047
2 37392   0.0205 154.2903 0001083  48.8775 228.9555  1.00269656    10
INTELSAT NEW DAWN       
1 37392C 11016A   22307.00000000  .00000245  00000-0  00000-0 0  3071
2 37392   0.0269 136.2488 0001290  86.2164 212.6030  1.00271098    17
INTELSAT NEW DAWN   [PM]
1 37392C 11016A   22311.00583333  .00000246  00000-0  00000-0 0  3117
2 37392   0.0085 254.5686 0001658 337.6945 208.8457  1.00271340    15
INTELSAT 18 (IS-18)     
1 37834C 11056A   22304.00000000  .00000143  00000-0  00000-0 0  3047
2 37834   0.0280 344.7634 0001754 223.5633  10.9787  1.00272252    13
INTELSAT 18 (IS-18)     
1 37834C 11056A   22307.00000000  .00000142  00000-0  00000-0 0  3072
2 37834   0.0304   1.7292 0001904 207.5243  13.0235  1.00268335    15
INTELSAT 18 (IS-18) [PM]
1 37834C 11056A   22310.65074074  .00000143  00000-0  00000-0 0  3104
2 37834   0.0311 330.5153 0002228 261.1295 228.4743  1.00274031    11
INTELSAT 22 (IS-22)     
1 38098C 12011A   22304.00000000  .00000031  00000-0  00000-0 0  3048
2 38098   0.0120 267.5941 0002975 302.8511 260.9723  1.00268667    16
INTELSAT 22 (IS-22)     
1 38098C 12011A   22307.00000000  .00000031  00000-0  00000-0 0  3074
2 38098   0.0045 249.7925 0002987 325.3901 259.1726  1.00271621    19
INTELSAT 22 (IS-22) [PM]
1 38098C 12011A   22312.42434028 -.00000010  00000-0  00000-0 0  3121
2 38098   0.0091  64.4579 0002992 314.8771 253.1391  1.00272090    14
INTELSAT 19 (IS-19)     
1 38356C 12030A   22304.00000000  .00000035  00000-0  00000-0 0  3040
2 38356   0.0091 275.3743 0002863 299.3090 350.6377  1.00269229    12
INTELSAT 19 (IS-19)     
1 38356C 12030A   22307.00000000 -.00000048  00000-0  00000-0 0  3071
2 38356   0.0031 258.8658 0003074 320.2369 349.1613  1.00270921    12
INTELSAT 19 (IS-19) [PM]
1 38356C 12030A   22310.74721065  .00000019  00000-0  00000-0 0  3108
2 38356   0.0462 126.3838 0003402  10.2293 344.3402  1.00271561    10
INTELSAT 20 (IS-20)     
1 38740C 12043A   22304.00000000  .00000066  00000-0  00000-0 0  3045
2 38740   0.0352  97.7011 0002843  86.4248 283.6878  1.00269575    16
INTELSAT 20 (IS-20) [PM]
1 38740C 12043A   22306.77692130  .00000066  00000-0  00000-0 0  3064
2 38740   0.0402  70.6203 0003206  38.3122 281.2936  1.00271481    14
INTELSAT 20 (IS-20)     
1 38740C 12043A   22307.00000000  .00000056  00000-0  00000-0 0  3070
2 38740   0.0360 105.4627 0003283  84.7901 280.5039  1.00269580    12
INTELSAT 21 (IS-21)     
1 38749C 12045A   22304.00000000 -.00000205  00000-0  00000-0 0  3042
2 38749   0.0001 314.8718 0002293 257.4864 128.9587  1.00270533    10
INTELSAT 21 (IS-21)     
1 38749C 12045A   22307.00000000 -.00000261  00000-0  00000-0 0  3070
2 38749   0.0063 335.3319 0002441 236.8321 132.0946  1.00272219    15
INTELSAT 21 (IS-21) [PM]
1 38749C 12045A   22311.79726852 -.00000195  00000-0  00000-0 0  3112
2 38749   0.0208 287.5593 0002791 301.9051  46.5513  1.00270839    15
INTELSAT 23 (IS-23)     
1 38867C 12057A   22304.00000000 -.00000195  00000-0  00000-0 0  3044
2 38867   0.0116 261.9410 0000984 194.4496 249.9435  1.00268720    16
INTELSAT 23 (IS-23)     
1 38867C 12057A   22307.00000000 -.00000195  00000-0  00000-0 0  3070
2 38867   0.0155 258.5344 0000893 182.2163 268.4912  1.00282188    12
INTELSAT 23 (IS-23) [PM]
1 38867C 12057A   22310.36666667 -.00000185  00000-0  00000-0 0  3103
2 38867   0.0701  60.1985 0001104 217.1182 207.2871  1.00266070    19
INTELSAT 30 (IS-30)     
1 40271C 14062A   22304.00000000 -.00000029  00000-0  00000-0 0  3040
2 40271   0.0034 264.2566 0002583 197.1567 202.8471  1.00269376    17
INTELSAT 30 (IS-30) [PM]
1 40271C 14062A   22306.45809028 -.00000053  00000-0  00000-0 0  3067
2 40271   0.0433  64.6944 0002304 207.8796 199.0069  1.00272094    17
INTELSAT 30 (IS-30)     
1 40271C 14062A   22307.00000000 -.00000065  00000-0  00000-0 0  3076
2 40271   0.0039 253.0474 0002235 211.1253 203.0313  1.00270230    18
INTELSAT 34 (IS-34)     
1 40874C 15039A   22304.00000000 -.00000198  00000-0  00000-0 0  3041
2 40874   0.0313  75.8116 0000873  62.3385 205.6699  1.00269878    14
INTELSAT 34 (IS-34)     
1 40874C 15039A   22307.00000000 -.00000198  00000-0  00000-0 0  3077
2 40874   0.0002 243.0445 0000565 250.3474 213.3765  1.00269013    10
INTELSAT 34 (IS-34) [PM]
1 40874C 15039A   22307.18712963 -.00000196  00000-0  00000-0 0  3072
2 40874   0.0347   9.8089 0000767 222.0993 182.4063  1.00272868    19
INTELSAT 31 (IS-31)     
1 41581C 16035A   22304.00000000 -.00000061  00000-0  00000-0 0  3043
2 41581   0.0144 239.2109 0001450 320.7783 104.2729  1.00269674    17
INTELSAT 31 (IS-31)     
1 41581C 16035A   22307.00000000 -.00000061  00000-0  00000-0 0  3079
2 41581   0.0178 239.4789 0001741 323.8749 103.8569  1.00269136    19
INTELSAT 31 (IS-31) [PM]
1 41581C 16035A   22307.10697917 -.00000061  00000-0  00000-0 0  3079
2 41581   0.0282 299.6521 0001957 304.0914 102.0785  1.00271986    18
INTELSAT 36 (IS-36)     
1 41747C 16053A   22304.00000000  .00000064  00000-0  00000-0 0  3049
2 41747   0.0108 322.4021 0001534  60.9809  84.4382  1.00270156    15
INTELSAT 36 (IS-36) [PM]
1 41747C 16053A   22306.29277778  .00000067  00000-0  00000-0 0  3065
2 41747   0.0374  64.4576 0001424  55.7434  95.2635  1.00271254    13
INTELSAT 36 (IS-36)     
1 41747C 16053A   22307.00000000  .00000055  00000-0  00000-0 0  3075
2 41747   0.0193 114.1547 0001295 256.9897  99.6182  1.00269426    10
INTELSAT 33E            
1 41748C 16053B   22304.00000000  .00000178  00000-0  00000-0 0  3046
2 41748   0.0326  74.3396 0002016 141.3324 243.6458  1.00272546    16
INTELSAT 33E            
1 41748C 16053B   22307.00000000 -.00000019  00000-0  00000-0 0  3077
2 41748   0.0310  67.9538 0001661 142.4265 251.8781  1.00269802    17
